{"type": "FeatureCollection", "features": [ {"type": "Feature", "properties": {"norad_id": 39122, "name": "EUTELSAT 117 WEST A", "group": "eutelsat", "lat": -0.018774532626121103, "lon": -141.30765004427747, "alt_km": 35777.84091733613, "timestamp": "2025-12-14T16:47:40.354411+00:00", "meta": {"OBJECT_NAME": "EUTELSAT 117 WEST A", "OBJECT_ID": "2013-012A", "EPOCH": "2025-12-13T21:27:14.569632", "MEAN_MOTION": 1.00271992, "ECCENTRICITY": 0.00028647, "INCLINATION": 0.0176, "RA_OF_ASC_NODE": 22.9168, "ARG_OF_PERICENTER": 243.6015, "MEAN_ANOMALY": 21.3056, "EPHEMERIS_TYPE": 0, "CLASSIFICATION_TYPE": "U", "NORAD_CAT_ID": 39122, "ELEMENT_SET_NO": 999, "REV_AT_EPOCH": 4657, "BSTAR": 0, "MEAN_MOTION_DOT": 3e-08, "MEAN_MOTION_DDOT": 0}, "tle": {"line1": "1 39122U 13012A   25347.89391863  .00000003  00000+0  00000+0 0  9993", "line2": "2 39122   0.0176  22.9168 0002864 243.6015  21.3056  1.00271992 46572"}}, "geometry": {"type": "Point", "coordinates": [-141.30765004427747, -0.018774532626121103]}}, {"type": "Feature", "properties": {"norad_id": 39163, "name": "EUTELSAT 7B", "group": "eutelsat", "lat": -0.04743269267928952, "lon": -17.44795926131743, "alt_km": 35767.62753130515, "timestamp": "2025-12-14T16:47:40.354424+00:00", "meta": {"OBJECT_NAME": "EUTELSAT 7B", "OBJECT_ID": "2013-022A", "EPOCH": "2025-12-13T22:23:38.652000", "MEAN_MOTION": 1.00273532, "ECCENTRICITY": 0.00046563, "INCLINATION": 0.0752, "RA_OF_ASC_NODE": 23.5398, "ARG_OF_PERICENTER": 295.3859, "MEAN_ANOMALY": 106.8466, "EPHEMERIS_TYPE": 0, "CLASSIFICATION_TYPE": "U", "NORAD_CAT_ID": 39163, "ELEMENT_SET_NO": 999, "REV_AT_EPOCH": 4610, "BSTAR": 0, "MEAN_MOTION_DOT": 6.5e-07, "MEAN_MOTION_DDOT": 0}, "tle": {"line1": "1 39163U 13022A   25347.93308625  .00000065  00000+0  00000+0 0  9996", "line2": "2 39163   0.0752  23.5398 0004656 295.3859 106.8466  1.00273532 46105"}}, "geometry": {"type": "Point", "coordinates": [-17.44795926131743, -0.04743269267928952]}}, {"type": "Feature", "properties": {"norad_id": 39612, "name": "EXPRESS-AT1", "group": "eutelsat", "lat": 0.03144097711232473, "lon": 31.512948138420814, "alt_km": 35785.63926125317, "timestamp": "2025-12-14T16:47:40.354436+00:00", "meta": {"OBJECT_NAME": "EXPRESS-AT1", "OBJECT_ID": "2014-010A", "EPOCH": "2025-12-14T10:15:41.842368", "MEAN_MOTION": 1.00273481, "ECCENTRICITY": 3.13e-05, "INCLINATION": 0.0196, "RA_OF_ASC_NODE": 344.8805, "ARG_OF_PERICENTER": 139.4475, "MEAN_ANOMALY": 168.9347, "EPHEMERIS_TYPE": 0, "CLASSIFICATION_TYPE": "U", "NORAD_CAT_ID": 39612, "ELEMENT_SET_NO": 999, "REV_AT_EPOCH": 4296, "BSTAR": 0, "MEAN_MOTION_DOT": 0, "MEAN_MOTION_DDOT": 0}, "tle": {"line1": "1 39612U 14010A   25348.42756762  .00000000  00000+0  00000+0 0  9996", "line2": "2 39612   0.0196 344.8805 0000313 139.4475 168.9347  1.00273481 42966"}}, "geometry": {"type": "Point", "coordinates": [31.512948138420814, 0.03144097711232473]}}, {"type": "Feature", "properties": {"norad_id": 39613, "name": "EXPRESS-AT2", "group": "eutelsat", "lat": 0.018381140062940695, "lon": 115.37050297155406, "alt_km": 35792.62624795546, "timestamp": "2025-12-14T16:47:40.354448+00:00", "meta": {"OBJECT_NAME": "EXPRESS-AT2", "OBJECT_ID": "2014-010B", "EPOCH": "2025-12-13T22:40:30.052992", "MEAN_MOTION": 1.00270289, "ECCENTRICITY": 0.00014321, "INCLINATION": 0.0188, "RA_OF_ASC_NODE": 318.6769, "ARG_OF_PERICENTER": 337.1317, "MEAN_ANOMALY": 267.039, "EPHEMERIS_TYPE": 0, "CLASSIFICATION_TYPE": "U", "NORAD_CAT_ID": 39613, "ELEMENT_SET_NO": 999, "REV_AT_EPOCH": 4264, "BSTAR": 0, "MEAN_MOTION_DOT": -2.65e-06, "MEAN_MOTION_DDOT": 0}, "tle": {"line1": "1 39613U 14010B   25347.94479228 -.00000265  00000+0  00000+0 0  9996", "line2": "2 39613   0.0188 318.6769 0001432 337.1317 267.0390  1.00270289 42648"}}, "geometry": {"type": "Point", "coordinates": [115.37050297155406, 0.018381140062940695]}}, {"type": "Feature", "properties": {"norad_id": 39773, "name": "EUTELSAT 3B", "group": "eutelsat", "lat": -0.013180135295686506, "lon": -21.337966539743583, "alt_km": 35792.14762689997, "timestamp": "2025-12-14T16:47:40.354460+00:00", "meta": {"OBJECT_NAME": "EUTELSAT 3B", "OBJECT_ID": "2014-030A", "EPOCH": "2025-12-13T22:23:38.652000", "MEAN_MOTION": 1.00271041, "ECCENTRICITY": 0.00044917, "INCLINATION": 0.0605, "RA_OF_ASC_NODE": 352.017, "ARG_OF_PERICENTER": 238.2985, "MEAN_ANOMALY": 191.5464, "EPHEMERIS_TYPE": 0, "CLASSIFICATION_TYPE": "U", "NORAD_CAT_ID": 39773, "ELEMENT_SET_NO": 999, "REV_AT_EPOCH": 4221, "BSTAR": 0, "MEAN_MOTION_DOT": 3.6e-07, "MEAN_MOTION_DDOT": 0}, "tle": {"line1": "1 39773U 14030A   25347.93308625  .00000036  00000+0  00000+0 0  9991", "line2": "2 39773   0.0605 352.0170 0004491 238.2985 191.5464  1.00271041 42210"}}, "geometry": {"type": "Point", "coordinates": [-21.337966539743583, -0.013180135295686506]}}, {"type": "Feature", "properties": {"norad_id": 40425, "name": "EUTELSAT 115 WEST B", "group": "eutelsat", "lat": -0.0002668549016982673, "lon": -139.36553405148413, "alt_km": 35785.62571065768, "timestamp": "2025-12-14T16:47:40.354471+00:00", "meta": {"OBJECT_NAME": "EUTELSAT 115 WEST B", "OBJECT_ID": "2015-010B", "EPOCH": "2025-12-13T23:10:34.671648", "MEAN_MOTION": 1.00272064, "ECCENTRICITY": 9.43e-06, "INCLINATION": 0.0211, "RA_OF_ASC_NODE": 164.5566, "ARG_OF_PERICENTER": 29.6564, "MEAN_ANOMALY": 121.4326, "EPHEMERIS_TYPE": 0, "CLASSIFICATION_TYPE": "U", "NORAD_CAT_ID": 40425, "ELEMENT_SET_NO": 999, "REV_AT_EPOCH": 3953, "BSTAR": 0, "MEAN_MOTION_DOT": -8e-08, "MEAN_MOTION_DDOT": 0}, "tle": {"line1": "1 40425U 15010B   25347.96567907 -.00000008  00000+0  00000+0 0  9999", "line2": "2 40425   0.0211 164.5566 0000094  29.6564 121.4326  1.00272064 39530"}}, "geometry": {"type": "Point", "coordinates": [-139.36553405148413, -0.0002668549016982673]}}, {"type": "Feature", "properties": {"norad_id": 40875, "name": "EUTELSAT 8 WEST B", "group": "eutelsat", "lat": -0.049144305190341755, "lon": -32.419535858878405, "alt_km": 35778.2204633413, "timestamp": "2025-12-14T16:47:40.354483+00:00", "meta": {"OBJECT_NAME": "EUTELSAT 8 WEST B", "OBJECT_ID": "2015-039B", "EPOCH": "2025-12-13T22:31:38.836416", "MEAN_MOTION": 1.00271724, "ECCENTRICITY": 0.00042368, "INCLINATION": 0.0664, "RA_OF_ASC_NODE": 10.8795, "ARG_OF_PERICENTER": 252.775, "MEAN_ANOMALY": 149.1354, "EPHEMERIS_TYPE": 0, "CLASSIFICATION_TYPE": "U", "NORAD_CAT_ID": 40875, "ELEMENT_SET_NO": 999, "REV_AT_EPOCH": 3779, "BSTAR": 0, "MEAN_MOTION_DOT": -4.9e-07, "MEAN_MOTION_DDOT": 0}, "tle": {"line1": "1 40875U 15039B   25347.93864394 -.00000049  00000+0  00000+0 0  9991", "line2": "2 40875   0.0664  10.8795 0004236 252.7750 149.1354  1.00271724 37792"}}, "geometry": {"type": "Point", "coordinates": [-32.419535858878405, -0.049144305190341755]}}, {"type": "Feature", "properties": {"norad_id": 41310, "name": "EUTELSAT 9B", "group": "eutelsat", "lat": -0.04094917358983121, "lon": -15.433254337155187, "alt_km": 35780.80557842824, "timestamp": "2025-12-14T16:47:40.354495+00:00", "meta": {"OBJECT_NAME": "EUTELSAT 9B", "OBJECT_ID": "2016-005A", "EPOCH": "2025-12-13T22:23:38.652000", "MEAN_MOTION": 1.00270563, "ECCENTRICITY": 0.00045954, "INCLINATION": 0.048, "RA_OF_ASC_NODE": 66.2166, "ARG_OF_PERICENTER": 205.0507, "MEAN_ANOMALY": 156.4987, "EPHEMERIS_TYPE": 0, "CLASSIFICATION_TYPE": "U", "NORAD_CAT_ID": 41310, "ELEMENT_SET_NO": 999, "REV_AT_EPOCH": 3625, "BSTAR": 0, "MEAN_MOTION_DOT": 7.8e-07, "MEAN_MOTION_DDOT": 0}, "tle": {"line1": "1 41310U 16005A   25347.93308625  .00000078  00000+0  00000+0 0  9991", "line2": "2 41310   0.0480  66.2166 0004595 205.0507 156.4987  1.00270563 36252"}}, "geometry": {"type": "Point", "coordinates": [-15.433254337155187, -0.04094917358983121]}}, {"type": "Feature", "properties": {"norad_id": 41382, "name": "EUTELSAT 65 WEST A", "group": "eutelsat", "lat": -0.06885995024477697, "lon": -89.67687164005645, "alt_km": 35775.81506672556, "timestamp": "2025-12-14T16:47:40.354506+00:00", "meta": {"OBJECT_NAME": "EUTELSAT 65 WEST A", "OBJECT_ID": "2016-014A", "EPOCH": "2025-12-13T21:41:58.159104", "MEAN_MOTION": 1.00271624, "ECCENTRICITY": 0.00024594, "INCLINATION": 0.0531, "RA_OF_ASC_NODE": 17.073, "ARG_OF_PERICENTER": 254.085, "MEAN_ANOMALY": 71.966, "EPHEMERIS_TYPE": 0, "CLASSIFICATION_TYPE": "U", "NORAD_CAT_ID": 41382, "ELEMENT_SET_NO": 999, "REV_AT_EPOCH": 3567, "BSTAR": 0, "MEAN_MOTION_DOT": -2.6e-06, "MEAN_MOTION_DDOT": 0}, "tle": {"line1": "1 41382U 16014A   25347.90414536 -.00000260  00000+0  00000+0 0  9990", "line2": "2 41382   0.0531  17.0730 0002459 254.0850  71.9660  1.00271624 35674"}}, "geometry": {"type": "Point", "coordinates": [-89.67687164005645, -0.06885995024477697]}}, {"type": "Feature", "properties": {"norad_id": 41589, "name": "EUTELSAT 117 WEST B", "group": "eutelsat", "lat": 0.008029410855068682, "lon": -141.45320719340233, "alt_km": 35786.94670925745, "timestamp": "2025-12-14T16:47:40.354518+00:00", "meta": {"OBJECT_NAME": "EUTELSAT 117 WEST B", "OBJECT_ID": "2016-038B", "EPOCH": "2025-12-12T23:11:46.195296", "MEAN_MOTION": 1.00271866, "ECCENTRICITY": 2.512e-05, "INCLINATION": 0.011, "RA_OF_ASC_NODE": 153.7448, "ARG_OF_PERICENTER": 269.9053, "MEAN_ANOMALY": 249.2194, "EPHEMERIS_TYPE": 0, "CLASSIFICATION_TYPE": "U", "NORAD_CAT_ID": 41589, "ELEMENT_SET_NO": 999, "REV_AT_EPOCH": 3479, "BSTAR": 0, "MEAN_MOTION_DOT": 1e-08, "MEAN_MOTION_DDOT": 0}, "tle": {"line1": "1 41589U 16038B   25346.96650689  .00000001  00000+0  00000+0 0  9993", "line2": "2 41589   0.0110 153.7448 0000251 269.9053 249.2194  1.00271866 34790"}}, "geometry": {"type": "Point", "coordinates": [-141.45320719340233, 0.008029410855068682]}}]}